From: horizons@ssd.jpl.nasa.gov (Horizons Ephemeris System)
Subject: [Horizons] SMALL BODY #C(500@10)_T(144P/Kushida) (1/1)
Date: March 1, 2021 at 1:22:55 PM PST

Automated mail xmit by MAIL_REQUEST, PID= 2301 Mon Mar  1 13:22:55 2021
++++++++++++++++++++++++++++++++ (part 1 of 1)  +++++++++++++++++++++++++++++++
*******************************************************************************
JPL/HORIZONS                    144P/Kushida               2021-Mar-01 13:22:55
Rec #:90001038 (+COV) Soln.date: 2020-Nov-11_11:13:17   # obs: 3096 (1994-2017)

IAU76/J2000 helio. ecliptic osc. elements (au, days, deg., period=Julian yrs):

 EPOCH=  2454937.5 ! 2009-Apr-16.0000000 (TDB)    RMSW= n.a.
  EC= .6278179431754092   QR= 1.438988741446288   TP= 2454858.3555999245
  OM= 245.559238116922    W= 216.0950327146944    IN= 4.109120314768083
  A= 3.866357109538149    MA= 10.26056601021697   ADIST= 6.29372547763001
  PER= 7.6025828388877    N= .12964361            ANGMOM= .026327708
  DAN= 4.75426            DDN= 1.55404            L= 101.5841049
  B= -2.4194355           MOID= .459034           TP= 2009-Jan-26.8555999245

Comet physical (GM= km^3/s^2; RAD= km):
  GM= n.a.                RAD= n.a.
  M1=  13.4     M2=  n.a.     k1=  9.75   k2= n.a.     PHCOF= n.a.

Comet non-gravitational force model (AMRAT=m^2/kg;A1-A3=au/d^2;DT=days;R0=au):
  AMRAT=  0.                                      DT=  38.28099
  A1= 1.034900426865E-8   A2= -1.247491240501E-9  A3= -3.00957094878E-10
Standard model:
  ALN=  .1112620426   NK=  4.6142   NM=  2.15     NN=  5.093    R0=  2.808

COMET comments 
1: soln ref.= JPL#20, data arc: 1994-01-07 to 2017-05-16
2: k1=9.75;
*******************************************************************************


*******************************************************************************
Ephemeris / MAIL_REQUEST Mon Mar  1 13:22:55 2021 Pasadena, USA  / Horizons
*******************************************************************************
Target body name: 144P/Kushida                    {source: JPL#20}
Center body name: Sun (10)                        {source: DE431}
Center-site name: BODY CENTER
*******************************************************************************
Start time      : A.D. 1990-Jan-01 00:00:00.0000 TDB
Stop  time      : A.D. 2020-Dec-31 00:00:00.0000 TDB
Step-size       : 10080 minutes
*******************************************************************************
Center geodetic : 0.00000000,0.00000000,0.0000000 {E-lon(deg),Lat(deg),Alt(km)}
Center cylindric: 0.00000000,0.00000000,0.0000000 {E-lon(deg),Dxy(km),Dz(km)}
Center radii    : 696000.0 x 696000.0 x 696000.0 k{Equator, meridian, pole}    
Small perturbers: Yes                             {source: SB431-N16}
Output units    : AU-D
Output type     : GEOMETRIC cartesian states
Output format   : 6 (LT, range, and range-rate)
Reference frame : Ecliptic of J2000.0
*******************************************************************************
Initial IAU76/J2000 heliocentric ecliptic osculating elements (au, days, deg.):
 EPOCH=  2454937.5 ! 2009-Apr-16.0000000 (TDB)    RMSW= n.a.                  
  EC= .6278179431754092   QR= 1.438988741446288   TP= 2454858.3555999245      
  OM= 245.559238116922    W= 216.0950327146944    IN= 4.109120314768083       
 Equivalent ICRF heliocentric equatorial cartesian coordinates (au, au/d):
  X=-1.502452078519944E+00  Y= 7.409085259378183E-01  Z= 1.896529868653104E-01
 VX=-1.194333187544838E-02 VY=-1.035286235601501E-02 VZ=-4.968145180720545E-03
Comet physical (GM= km^3/s^2; RAD= km):                                        
  GM= n.a.                RAD= n.a.                                           
  M1=  13.4     M2=  n.a.     k1=  9.75   k2= n.a.     PHCOF= n.a.            
Comet non-gravitational force model (AMRAT=m^2/kg;A1-A3=au/d^2;DT=days;R0=au): 
  AMRAT=  0.                                      DT=  38.28099               
  A1= 1.034900426865E-8   A2= -1.247491240501E-9  A3= -3.00957094878E-10      
Standard model:                                                               
  ALN=  .1112620426   NK=  4.6142   NM=  2.15     NN=  5.093    R0=  2.808    
*******************************************************************************
           JDTDB,            Calendar Date (TDB),                     LT,                     RG,                     RR,
**************************************************************************************************************************
$$SOE
2451896.500000000, A.D. 2000-Dec-18 00:00:00.0000,  1.407078039684106E-02,  2.436280103250947E+00, -7.068922963263417E-03,
2451903.500000000, A.D. 2000-Dec-25 00:00:00.0000,  1.378473142332667E-02,  2.386752258804954E+00, -7.080790910312256E-03,
2451910.500000000, A.D. 2001-Jan-01 00:00:00.0000,  1.349834188317585E-02,  2.337165447073797E+00, -7.085619554060106E-03,
2451917.500000000, A.D. 2001-Jan-08 00:00:00.0000,  1.321191546358325E-02,  2.287572249865238E+00, -7.082444946546629E-03,
2451924.500000000, A.D. 2001-Jan-15 00:00:00.0000,  1.292579723397598E-02,  2.238032414098484E+00, -7.070181741715985E-03,
2451931.500000000, A.D. 2001-Jan-22 00:00:00.0000,  1.264037881550374E-02,  2.188613746873644E+00, -7.047610146282692E-03,
2451938.500000000, A.D. 2001-Jan-29 00:00:00.0000,  1.235610409164277E-02,  2.139393104232166E+00, -7.013362212178852E-03,
2451945.500000000, A.D. 2001-Feb-05 00:00:00.0000,  1.207347547515789E-02,  2.090457476247663E+00, -6.965908402725610E-03,
2451952.500000000, A.D. 2001-Feb-12 00:00:00.0000,  1.179306065578259E-02,  2.041905155350512E+00, -6.903547738719218E-03,
2451959.500000000, A.D. 2001-Feb-19 00:00:00.0000,  1.151549968300775E-02,  1.993846962674708E+00, -6.824400234017782E-03,
2451966.500000000, A.D. 2001-Feb-26 00:00:00.0000,  1.124151235097999E-02,  1.946407526713365E+00, -6.726400255372243E-03,
2451973.500000000, A.D. 2001-Mar-05 00:00:00.0000,  1.097190571971597E-02,  1.899726585576619E+00, -6.607297386342155E-03,
2451980.500000000, A.D. 2001-Mar-12 00:00:00.0000,  1.070758139271951E-02,  1.853960247071950E+00, -6.464667874805661E-03,
2451987.500000000, A.D. 2001-Mar-19 00:00:00.0000,  1.044954207888498E-02,  1.809282124862558E+00, -6.295939202544750E-03,
2451994.500000000, A.D. 2001-Mar-26 00:00:00.0000,  1.019889682403900E-02,  1.765884244280710E+00, -6.098432140744368E-03,
2452001.500000000, A.D. 2001-Apr-02 00:00:00.0000,  9.956864103704775E-03,  1.723977577823293E+00, -5.869425368340037E-03,
2452008.500000000, A.D. 2001-Apr-09 00:00:00.0000,  9.724771760186417E-03,  1.683792034258303E+00, -5.606247793367686E-03,
2452015.500000000, A.D. 2001-Apr-16 00:00:00.0000,  9.504052570030272E-03,  1.645575691154562E+00, -5.306403020581518E-03,
2452022.500000000, A.D. 2001-Apr-23 00:00:00.0000,  9.296234083245819E-03,  1.609593035597351E+00, -4.967728400291075E-03,
2452029.500000000, A.D. 2001-Apr-30 00:00:00.0000,  9.102921350169223E-03,  1.576121973437550E+00, -4.588587160263614E-03,
2452036.500000000, A.D. 2001-May-07 00:00:00.0000,  8.925771307515902E-03,  1.545449394374115E+00, -4.168087625877989E-03,
2452043.500000000, A.D. 2001-May-14 00:00:00.0000,  8.766457920427960E-03,  1.517865136486684E+00, -3.706318553188283E-03,
2452050.500000000, A.D. 2001-May-21 00:00:00.0000,  8.626627889424565E-03,  1.493654317131773E+00, -3.204575035567885E-03,
2452057.500000000, A.D. 2001-May-28 00:00:00.0000,  8.507847971545503E-03,  1.473088211881527E+00, -2.665542271598664E-03,
2452064.500000000, A.D. 2001-Jun-04 00:00:00.0000,  8.411546259145130E-03,  1.456414087262064E+00, -2.093404929621426E-03,
2452071.500000000, A.D. 2001-Jun-11 00:00:00.0000,  8.338951134285479E-03,  1.443844631034299E+00, -1.493847291704783E-03,
2452078.500000000, A.D. 2001-Jun-18 00:00:00.0000,  8.291032892543114E-03,  1.435547844669422E+00, -8.739180287888856E-04,
2452085.500000000, A.D. 2001-Jun-25 00:00:00.0000,  8.268453733563438E-03,  1.431638384481793E+00, -2.417522158741194E-04,
2452092.500000000, A.D. 2001-Jul-02 00:00:00.0000,  8.271531633337905E-03,  1.432171306307651E+00,  3.938324310832646E-04,
2452099.500000000, A.D. 2001-Jul-09 00:00:00.0000,  8.300222417952297E-03,  1.437138961670845E+00,  1.023823474805394E-03,
2452106.500000000, A.D. 2001-Jul-16 00:00:00.0000,  8.354122279282396E-03,  1.446471433362038E+00,  1.639526277488372E-03,
2452113.500000000, A.D. 2001-Jul-23 00:00:00.0000,  8.432490408169716E-03,  1.460040454251601E+00,  2.233036228401145E-03,
2452120.500000000, A.D. 2001-Jul-30 00:00:00.0000,  8.534288943341930E-03,  1.477666324230769E+00,  2.797615422831212E-03,
2452127.500000000, A.D. 2001-Aug-06 00:00:00.0000,  8.658235581820269E-03,  1.499127019421308E+00,  3.327938083691235E-03,
2452134.500000000, A.D. 2001-Aug-13 00:00:00.0000,  8.802863173435876E-03,  1.524168510646153E+00,  3.820190461892641E-03,
2452141.500000000, A.D. 2001-Aug-20 00:00:00.0000,  8.966580610174954E-03,  1.552515306092709E+00,  4.272039613844692E-03,
2452148.500000000, A.D. 2001-Aug-27 00:00:00.0000,  9.147730325726312E-03,  1.583880407050891E+00,  4.682502364443592E-03,
2452155.500000000, A.D. 2001-Sep-03 00:00:00.0000,  9.344639039877645E-03,  1.617974094032981E+00,  5.051747967124024E-03,
2452162.500000000, A.D. 2001-Sep-10 00:00:00.0000,  9.555659769246203E-03,  1.654511200706150E+00,  5.380868868338318E-03,
2452169.500000000, A.D. 2001-Sep-17 00:00:00.0000,  9.779204429703845E-03,  1.693216758827376E+00,  5.671648669484332E-03,
2452176.500000000, A.D. 2001-Sep-24 00:00:00.0000,  1.001376736003676E-02,  1.733830071238863E+00,  5.926347697468741E-03,
2452183.500000000, A.D. 2001-Oct-01 00:00:00.0000,  1.025794074561970E-02,  1.776107382394446E+00,  6.147518067409550E-03,
2452190.500000000, A.D. 2001-Oct-08 00:00:00.0000,  1.051042325314564E-02,  1.819823373416696E+00,  6.337853096241433E-03,
2452197.500000000, A.D. 2001-Oct-15 00:00:00.0000,  1.077002327405342E-02,  1.864771723678999E+00,  6.500070816542227E-03,
